{
    "links": {
        "self": "http://www.neowsapp.com/rest/v1/neo/3837821?api_key=iIulBulltgU6a56xZRHN4H3l9WmuAYTsLGpBGhQ2"
    },
    "id": "3837821",
    "neo_reference_id": "3837821",
    "name": "(2019 AG10)",
    "designation": "2019 AG10",
    "nasa_jpl_url": "http://ssd.jpl.nasa.gov/sbdb.cgi?sstr=3837821",
    "absolute_magnitude_h": 24.1,
    "estimated_diameter": {
        "kilometers": {
            "estimated_diameter_min": 0.040230458,
            "estimated_diameter_max": 0.0899580388
        },
        "meters": {
            "estimated_diameter_min": 40.2304579834,
            "estimated_diameter_max": 89.9580388169
        },
        "miles": {
            "estimated_diameter_min": 0.0249980399,
            "estimated_diameter_max": 0.0558973165
        },
        "feet": {
            "estimated_diameter_min": 131.9896957704,
            "estimated_diameter_max": 295.1379320721
        }
    },
    "is_potentially_hazardous_asteroid": false,
    "close_approach_data": [
        {
            "close_approach_date": "2019-01-09",
            "close_approach_date_full": "2019-Jan-09 08:48",
            "epoch_date_close_approach": 1547023680000,
            "relative_velocity": {
                "kilometers_per_second": "2.2669831252",
                "kilometers_per_hour": "8161.1392505612",
                "miles_per_hour": "5071.0145526612"
            },
            "miss_distance": {
                "astronomical": "0.2987193928",
                "lunar": "116.2018437992",
                "kilometers": "44687784.890573336",
                "miles": "27767701.9255545968"
            },
            "orbiting_body": "Earth"
        }
    ],
    "orbital_data": {
        "orbit_id": "1",
        "orbit_determination_date": "2019-01-14 04:42:06",
        "first_observation_date": "2019-01-09",
        "last_observation_date": "2019-01-14",
        "data_arc_in_days": 5,
        "observations_used": 9,
        "orbit_uncertainty": "9",
        "minimum_orbit_intersection": ".297549",
        "jupiter_tisserand_invariant": "4.147",
        "epoch_osculation": "2458493.5",
        "eccentricity": ".2516694743254624",
        "semi_major_axis": "1.711752368852506",
        "inclination": "4.057577847767392",
        "ascending_node_longitude": "296.0770577276169",
        "orbital_period": "818.0122985436526",
        "perihelion_distance": "1.280956550008031",
        "perihelion_argument": "175.1286327592771",
        "aphelion_distance": "2.142548187696982",
        "perihelion_time": "2458497.484239270080",
        "mean_anomaly": "358.246571427126",
        "mean_motion": ".4400911827865249",
        "equinox": "J2000",
        "orbit_class": {
            "orbit_class_type": "AMO",
            "orbit_class_description": "Near-Earth asteroid orbits similar to that of 1221 Amor",
            "orbit_class_range": "1.017 AU < q (perihelion) < 1.3 AU"
        }
    },
    "is_sentry_object": false
}